[{"OBJECT_NAME":"STARLINK-5508","OBJECT_ID":"2023-021M","EPOCH":"2025-10-13T03:54:32.882976","MEAN_MOTION":14.98364318,"ECCENTRICITY":0.00030313,"INCLINATION":70.0009,"RA_OF_ASC_NODE":196.4095,"ARG_OF_PERICENTER":269.0642,"MEAN_ANOMALY":91.0169,"EPHEMERIS_TYPE":0,"CLASSIFICATION_TYPE":"U","NORAD_CAT_ID":55639,"ELEMENT_SET_NO":999,"REV_AT_EPOCH":14669,"BSTAR":-0.00050392438,"MEAN_MOTION_DOT":-6.106e-5,"MEAN_MOTION_DDOT":0},{"OBJECT_NAME":"STARLINK-5069","OBJECT_ID":"2023-021N","EPOCH":"2025-10-13T03:48:18.188640","MEAN_MOTION":14.98332274,"ECCENTRICITY":0.00026344,"INCLINATION":70.0009,"RA_OF_ASC_NODE":196.393,"ARG_OF_PERICENTER":271.5311,"MEAN_ANOMALY":88.5546,"EPHEMERIS_TYPE":0,"CLASSIFICATION_TYPE":"U","NORAD_CAT_ID":55640,"ELEMENT_SET_NO":999,"REV_AT_EPOCH":14669,"BSTAR":0.00012897306,"MEAN_MOTION_DOT":1.446e-5,"MEAN_MOTION_DDOT":0},{"OBJECT_NAME":"STARLINK-5065","OBJECT_ID":"2023-021P","EPOCH":"2025-10-13T04:30:23.009184","MEAN_MOTION":14.98324371,"ECCENTRICITY":0.00025864,"INCLINATION":70.0014,"RA_OF_ASC_NODE":196.4939,"ARG_OF_PERICENTER":274.2121,"MEAN_ANOMALY":85.8743,"EPHEMERIS_TYPE":0,"CLASSIFICATION_TYPE":"U","NORAD_CAT_ID":55641,"ELEMENT_SET_NO":999,"REV_AT_EPOCH":14669,"BSTAR":-0.00011893786,"MEAN_MOTION_DOT":-1.512e-5,"MEAN_MOTION_DDOT":0},{"OBJECT_NAME":"STARLINK-5483","OBJECT_ID":"2023-021R","EPOCH":"2025-10-13T04:42:23.455584","MEAN_MOTION":14.98329014,"ECCENTRICITY":0.00031021,"INCLINATION":70.0003,"RA_OF_ASC_NODE":196.5191,"ARG_OF_PERICENTER":274.677,"MEAN_ANOMALY":85.4035,"EPHEMERIS_TYPE":0,"CLASSIFICATION_TYPE":"U","NORAD_CAT_ID":55643,"ELEMENT_SET_NO":999,"REV_AT_EPOCH":14669,"BSTAR":0.00027195792,"MEAN_MOTION_DOT":3.153e-5,"MEAN_MOTION_DDOT":0},{"OBJECT_NAME":"STARLINK-5502","OBJECT_ID":"2023-021S","EPOCH":"2025-10-13T04:12:20.622816","MEAN_MOTION":14.9833495,"ECCENTRICITY":0.00026096,"INCLINATION":70.0016,"RA_OF_ASC_NODE":196.4526,"ARG_OF_PERICENTER":277.3306,"MEAN_ANOMALY":82.7557,"EPHEMERIS_TYPE":0,"CLASSIFICATION_TYPE":"U","NORAD_CAT_ID":55644,"ELEMENT_SET_NO":999,"REV_AT_EPOCH":14669,"BSTAR":4.5727962e-5,"MEAN_MOTION_DOT":4.53e-6,"MEAN_MOTION_DDOT":0},{"OBJECT_NAME":"STARLINK-5510","OBJECT_ID":"2023-021V","EPOCH":"2025-10-13T03:24:15.237792","MEAN_MOTION":14.9836754,"ECCENTRICITY":0.00026298,"INCLINATION":70.0022,"RA_OF_ASC_NODE":196.3346,"ARG_OF_PERICENTER":265.6331,"MEAN_ANOMALY":94.4528,"EPHEMERIS_TYPE":0,"CLASSIFICATION_TYPE":"U","NORAD_CAT_ID":55647,"ELEMENT_SET_NO":999,"REV_AT_EPOCH":14669,"BSTAR":-0.00055726262,"MEAN_MOTION_DOT":-6.742e-5,"MEAN_MOTION_DDOT":0},{"OBJECT_NAME":"STARLINK-5501","OBJECT_ID":"2023-021W","EPOCH":"2025-10-13T04:06:19.888128","MEAN_MOTION":14.98334421,"ECCENTRICITY":0.00029779,"INCLINATION":70.0009,"RA_OF_ASC_NODE":196.4387,"ARG_OF_PERICENTER":269.8813,"MEAN_ANOMALY":90.2005,"EPHEMERIS_TYPE":0,"CLASSIFICATION_TYPE":"U","NORAD_CAT_ID":55648,"ELEMENT_SET_NO":999,"REV_AT_EPOCH":14669,"BSTAR":2.8996026e-5,"MEAN_MOTION_DOT":2.53e-6,"MEAN_MOTION_DDOT":0},{"OBJECT_NAME":"STARLINK-5469","OBJECT_ID":"2023-021X","EPOCH":"2025-10-13T03:36:16.947360","MEAN_MOTION":14.9834264,"ECCENTRICITY":0.00029324,"INCLINATION":70.0001,"RA_OF_ASC_NODE":196.3637,"ARG_OF_PERICENTER":269.9261,"MEAN_ANOMALY":90.1562,"EPHEMERIS_TYPE":0,"CLASSIFICATION_TYPE":"U","NORAD_CAT_ID":55649,"ELEMENT_SET_NO":999,"REV_AT_EPOCH":14669,"BSTAR":-1.3970471e-5,"MEAN_MOTION_DOT":-2.6e-6,"MEAN_MOTION_DDOT":0},{"OBJECT_NAME":"STARLINK-5494","OBJECT_ID":"2023-021Y","EPOCH":"2025-10-13T03:54:18.390240","MEAN_MOTION":14.98330835,"ECCENTRICITY":0.00028811,"INCLINATION":70.0013,"RA_OF_ASC_NODE":196.4079,"ARG_OF_PERICENTER":269.8501,"MEAN_ANOMALY":90.2328,"EPHEMERIS_TYPE":0,"CLASSIFICATION_TYPE":"U","NORAD_CAT_ID":55650,"ELEMENT_SET_NO":999,"REV_AT_EPOCH":14669,"BSTAR":-4.2645495e-5,"MEAN_MOTION_DOT":-6.02e-6,"MEAN_MOTION_DDOT":0},{"OBJECT_NAME":"STARLINK-5506","OBJECT_ID":"2023-021Z","EPOCH":"2025-10-13T04:18:21.212352","MEAN_MOTION":14.98334821,"ECCENTRICITY":0.00028109,"INCLINATION":70.0009,"RA_OF_ASC_NODE":196.4674,"ARG_OF_PERICENTER":270.9494,"MEAN_ANOMALY":89.1343,"EPHEMERIS_TYPE":0,"CLASSIFICATION_TYPE":"U","NORAD_CAT_ID":55651,"ELEMENT_SET_NO":999,"REV_AT_EPOCH":14669,"BSTAR":6.340443e-5,"MEAN_MOTION_DOT":6.64e-6,"MEAN_MOTION_DDOT":0},{"OBJECT_NAME":"STARLINK-5487","OBJECT_ID":"2023-021AA","EPOCH":"2025-10-13T03:42:17.512704","MEAN_MOTION":14.98333485,"ECCENTRICITY":0.0002803,"INCLINATION":70.001,"RA_OF_ASC_NODE":196.3787,"ARG_OF_PERICENTER":269.9512,"MEAN_ANOMALY":90.1326,"EPHEMERIS_TYPE":0,"CLASSIFICATION_TYPE":"U","NORAD_CAT_ID":55652,"ELEMENT_SET_NO":999,"REV_AT_EPOCH":14669,"BSTAR":-9.39219e-7,"MEAN_MOTION_DOT":-1.04e-6,"MEAN_MOTION_DDOT":0},{"OBJECT_NAME":"STARLINK-5067","OBJECT_ID":"2023-021AB","EPOCH":"2025-10-13T03:18:14.640480","MEAN_MOTION":14.98334878,"ECCENTRICITY":0.00027084,"INCLINATION":70.0013,"RA_OF_ASC_NODE":196.3209,"ARG_OF_PERICENTER":268.7779,"MEAN_ANOMALY":91.307,"EPHEMERIS_TYPE":0,"CLASSIFICATION_TYPE":"U","NORAD_CAT_ID":55653,"ELEMENT_SET_NO":999,"REV_AT_EPOCH":14669,"BSTAR":2.354587e-5,"MEAN_MOTION_DOT":1.88e-6,"MEAN_MOTION_DDOT":0},{"OBJECT_NAME":"STARLINK-5070","OBJECT_ID":"2023-021AC","EPOCH":"2025-10-13T04:36:23.079456","MEAN_MOTION":14.98335402,"ECCENTRICITY":0.00027318,"INCLINATION":70.0014,"RA_OF_ASC_NODE":196.5129,"ARG_OF_PERICENTER":268.2462,"MEAN_ANOMALY":91.8384,"EPHEMERIS_TYPE":0,"CLASSIFICATION_TYPE":"U","NORAD_CAT_ID":55654,"ELEMENT_SET_NO":999,"REV_AT_EPOCH":14669,"BSTAR":4.1618349e-5,"MEAN_MOTION_DOT":4.04e-6,"MEAN_MOTION_DDOT":0},{"OBJECT_NAME":"STARLINK-5267","OBJECT_ID":"2023-021AD","EPOCH":"2025-10-13T02:17:51.374400","MEAN_MOTION":14.98334323,"ECCENTRICITY":0.00028003,"INCLINATION":70,"RA_OF_ASC_NODE":176.7046,"ARG_OF_PERICENTER":270.7749,"MEAN_ANOMALY":89.3089,"EPHEMERIS_TYPE":0,"CLASSIFICATION_TYPE":"U","NORAD_CAT_ID":55655,"ELEMENT_SET_NO":999,"REV_AT_EPOCH":14716,"BSTAR":3.822507e-6,"MEAN_MOTION_DOT":-4.7e-7,"MEAN_MOTION_DDOT":0},{"OBJECT_NAME":"STARLINK-5326","OBJECT_ID":"2023-021AE","EPOCH":"2025-10-13T08:00:03.000384","MEAN_MOTION":15.16513263,"ECCENTRICITY":0.0003259,"INCLINATION":69.9992,"RA_OF_ASC_NODE":195.4871,"ARG_OF_PERICENTER":276.0107,"MEAN_ANOMALY":10.1527,"EPHEMERIS_TYPE":0,"CLASSIFICATION_TYPE":"U","NORAD_CAT_ID":55656,"ELEMENT_SET_NO":999,"REV_AT_EPOCH":577,"BSTAR":0.089791967,"MEAN_MOTION_DOT":0.01942168,"MEAN_MOTION_DDOT":0},{"OBJECT_NAME":"STARLINK-5328","OBJECT_ID":"2023-021AF","EPOCH":"2025-10-13T02:29:52.618272","MEAN_MOTION":14.9833448,"ECCENTRICITY":0.00029075,"INCLINATION":70.0004,"RA_OF_ASC_NODE":176.7326,"ARG_OF_PERICENTER":270.0634,"MEAN_ANOMALY":90.0192,"EPHEMERIS_TYPE":0,"CLASSIFICATION_TYPE":"U","NORAD_CAT_ID":55657,"ELEMENT_SET_NO":999,"REV_AT_EPOCH":14717,"BSTAR":2.4835808e-5,"MEAN_MOTION_DOT":2.03e-6,"MEAN_MOTION_DDOT":0}]
