STARLINK-5508           
1 55639U 23021M   25286.16288059 -.00006106  00000+0 -50392-3 0  9994
2 55639  70.0009 196.4095 0003031 269.0642  91.0169 14.98364318146695
STARLINK-5069           
1 55640U 23021N   25286.15854385  .00001446  00000+0  12897-3 0  9994
2 55640  70.0009 196.3930 0002634 271.5311  88.5546 14.98332274146699
STARLINK-5065           
1 55641U 23021P   25286.18776631 -.00001512  00000+0 -11894-3 0  9997
2 55641  70.0014 196.4939 0002586 274.2121  85.8743 14.98324371146699
STARLINK-5483           
1 55643U 23021R   25286.19610481  .00003153  00000+0  27196-3 0  9993
2 55643  70.0003 196.5191 0003102 274.6770  85.4035 14.98329014146698
STARLINK-5502           
1 55644U 23021S   25286.17523869  .00000453  00000+0  45728-4 0  9997
2 55644  70.0016 196.4526 0002609 277.3306  82.7557 14.98334950146694
STARLINK-5510           
1 55647U 23021V   25286.14184303 -.00006742  00000+0 -55726-3 0  9990
2 55647  70.0022 196.3346 0002629 265.6331  94.4528 14.98367540146692
STARLINK-5501           
1 55648U 23021W   25286.17106352  .00000253  00000+0  28996-4 0  9991
2 55648  70.0009 196.4387 0002977 269.8813  90.2005 14.98334421146697
STARLINK-5469           
1 55649U 23021X   25286.15019615 -.00000260  00000+0 -13970-4 0  9991
2 55649  70.0001 196.3637 0002932 269.9261  90.1562 14.98342640146695
STARLINK-5494           
1 55650U 23021Y   25286.16271285 -.00000602  00000+0 -42645-4 0  9998
2 55650  70.0013 196.4079 0002881 269.8501  90.2328 14.98330835146694
STARLINK-5506           
1 55651U 23021Z   25286.17941218  .00000664  00000+0  63404-4 0  9992
2 55651  70.0009 196.4674 0002810 270.9494  89.1343 14.98334821146690
STARLINK-5487           
1 55652U 23021AA  25286.15436936 -.00000104  00000+0 -93922-6 0  9998
2 55652  70.0010 196.3787 0002803 269.9512  90.1326 14.98333485146696
STARLINK-5067           
1 55653U 23021AB  25286.13766945  .00000188  00000+0  23546-4 0  9996
2 55653  70.0013 196.3209 0002708 268.7779  91.3070 14.98334878146691
STARLINK-5070           
1 55654U 23021AC  25286.19193379  .00000404  00000+0  41618-4 0  9999
2 55654  70.0014 196.5129 0002731 268.2462  91.8384 14.98335402146693
STARLINK-5267           
1 55655U 23021AD  25286.09573350 -.00000047  00000+0  38225-5 0  9995
2 55655  70.0000 176.7046 0002800 270.7749  89.3089 14.98334323147168
STARLINK-5326           
1 55656U 23021AE  25286.33336806  .01942168  00000+0  89792-1 0  9996
2 55656  69.9992 195.4871 0003259 276.0107  10.1527 15.16513263  5778
STARLINK-5328           
1 55657U 23021AF  25286.10408123  .00000203  00000+0  24836-4 0  9999
2 55657  70.0004 176.7326 0002907 270.0634  90.0192 14.98334480147178
